OBJECT_NAME,OBJECT_ID,EPOCH,MEAN_MOTION,ECCENTRICITY,INCLINATION,RA_OF_ASC_NODE,ARG_OF_PERICENTER,MEAN_ANOMALY,EPHEMERIS_TYPE,CLASSIFICATION_TYPE,NORAD_CAT_ID,ELEMENT_SET_NO,REV_AT_EPOCH,BSTAR,MEAN_MOTION_DOT,MEAN_MOTION_DDOT
QIANFAN-234,2026-155R,2026-07-22T07:23:41.033184,14.24414021,.00303607,89.0062,60.1358,197.5189,162.4959,0,U,69863,999,239,.22446236E-4,.67E-6,0
QIANFAN-235,2026-155S,2026-07-22T05:39:59.913504,14.26766661,.00309883,89.0062,60.1435,199.6027,160.3978,0,U,69864,999,238,.87671458E-4,.228E-5,0
QIANFAN-236,2026-155T,2026-07-21T23:02:40.934400,14.21179172,.00302808,89.0073,60.1786,199.2788,160.7260,0,U,69865,999,234,.21677173E-4,.62E-6,0
QIANFAN-237,2026-155U,2026-07-22T05:42:42.486336,14.24432134,.00306602,89.0061,60.1438,199.0113,160.9938,0,U,69866,999,237,.2204763E-4,.66E-6,0
QIANFAN-238,2026-155V,2026-07-22T05:39:43.913952,14.26739696,.00310362,89.0062,60.1435,199.3262,160.6757,0,U,69867,999,238,.10902477E-3,.28E-5,0
CZ-8A R/B,2026-155W,2026-07-22T06:22:51.453984,14.48273861,.01066061,88.9653,60.0302,79.7983,281.5225,0,U,69868,999,241,.87377155E-4,.369E-5,0
TRANSPORTER-17 OBJECT A,2026-156A,2026-07-22T06:32:37.224384,13.99858719,.0011908,98.9941,103.2302,180.1766,179.9396,0,U,69869,999,209,-.63988499E-4,-.138E-5,0
TRANSPORTER-17 OBJECT B,2026-156B,2026-07-22T04:00:24.349536,14.91658733,.00084484,97.7514,103.3715,96.7548,263.4633,0,U,69870,999,221,.18862682E-3,.1841E-4,0
TRANSPORTER-17 OBJECT C,2026-156C,2026-07-22T03:59:58.903008,14.91673460,.00075552,97.7550,103.3815,100.0964,260.1107,0,U,69871,999,202,.36295519E-4,.309E-5,0
TRANSPORTER-17 OBJECT D,2026-156D,2026-07-22T01:00:24.054912,14.90714429,.00050745,97.7516,103.2295,70.2302,289.9463,0,U,69872,999,219,.78813882E-4,.719E-5,0
TRANSPORTER-17 OBJECT E,2026-156E,2026-07-22T04:01:19.282656,14.91580974,.00073921,97.7552,103.3803,97.3263,262.8796,0,U,69873,999,221,.72992247E-4,.677E-5,0
TRANSPORTER-17 OBJECT F,2026-156F,2026-07-22T04:11:41.781696,14.90864551,.00047125,97.7521,103.3643,83.2283,276.9472,0,U,69874,999,221,.15062693E-3,.1429E-4,0
TRANSPORTER-17 OBJECT G,2026-156G,2026-07-22T04:10:59.338560,14.90910635,.00051468,97.7506,103.3626,80.2024,279.9775,0,U,69875,999,221,.11108699E-3,.1041E-4,0
TRANSPORTER-17 OBJECT H,2026-156H,2026-07-22T00:43:30.806688,14.91898313,.0008599,97.7337,103.2360,104.2403,255.9772,0,U,69876,999,219,.21100183E-4,.158E-5,0
TRANSPORTER-17 OBJECT J,2026-156J,2026-07-22T00:51:40.503744,14.91349905,.00066435,97.7543,103.2434,92.6967,267.5012,0,U,69877,999,219,.30204824E-3,.2958E-4,0
TRANSPORTER-17 OBJECT K,2026-156K,2026-07-22T03:59:21.982560,14.91716791,.00083658,97.7511,103.3725,97.9720,262.2448,0,U,69878,999,221,.66454747E-4,.613E-5,0
TRANSPORTER-17 OBJECT L,2026-156L,2026-07-22T04:02:35.562624,14.91496123,.00071859,97.7548,103.3779,95.4926,264.7112,0,U,69879,999,221,.10628305E-3,.1008E-4,0
TRANSPORTER-17 OBJECT M,2026-156M,2026-07-22T04:09:19.774656,14.91029473,.00063751,97.7452,103.3546,75.4450,284.7475,0,U,69880,999,221,.1464595E-3,.1394E-4,0
TRANSPORTER-17 OBJECT N,2026-156N,2026-07-22T04:09:19.789344,14.91022483,.00057689,97.7488,103.3610,80.8832,279.3039,0,U,69881,999,221,.68978663E-4,.627E-5,0
TRANSPORTER-17 OBJECT P,2026-156P,2026-07-21T23:19:09.490368,14.91061388,.00051151,97.7561,103.1761,96.2135,263.9666,0,U,69882,999,218,.3349333E-3,.3262E-4,0
TRANSPORTER-17 OBJECT Q,2026-156Q,2026-07-22T04:05:14.069472,14.91304573,.00065424,97.7542,103.3740,92.2289,267.9678,0,U,69883,999,221,.539156E-4,.482E-5,0
TRANSPORTER-17 OBJECT R,2026-156R,2026-07-22T03:57:47.572416,14.91832821,.0008587,97.7511,103.3747,100.9369,259.2817,0,U,69884,999,221,.11571357E-3,.1113E-4,0
TRANSPORTER-17 OBJECT S,2026-156S,2026-07-22T04:03:16.524000,14.91442690,.00074262,97.7519,103.3711,91.6530,268.5539,0,U,69885,999,221,.63442851E-4,.579E-5,0
TRANSPORTER-17 OBJECT T,2026-156T,2026-07-22T03:57:42.956064,14.91833287,.0008292,97.7549,103.3823,103.3038,256.9106,0,U,69886,999,220,.76245292E-4,.714E-5,0
TRANSPORTER-17 OBJECT U,2026-156U,2026-07-22T03:58:06.514752,14.91799575,.00081502,97.7547,103.3817,103.2260,256.9868,0,U,69887,999,221,.21364996E-4,.16E-5,0
TRANSPORTER-17 OBJECT V,2026-156V,2026-07-22T04:05:00.967776,14.91330457,.00064907,97.7560,103.3778,93.6064,266.5896,0,U,69888,999,205,.14389959E-3,.1379E-4,0
TRANSPORTER-17 OBJECT W,2026-156W,2026-07-22T04:03:26.413344,14.91445600,.00071022,97.7548,103.3768,93.6601,266.5430,0,U,69889,999,221,.17972798E-3,.1742E-4,0
TRANSPORTER-17 OBJECT X,2026-156X,2026-07-22T03:56:59.358624,14.91883535,.00085701,97.7542,103.3815,103.7733,256.4441,0,U,69890,999,221,.67166443E-4,.623E-5,0
TRANSPORTER-17 OBJECT Y,2026-156Y,2026-07-21T23:12:17.148960,14.91525264,.00077852,97.7511,103.1726,93.9020,266.3089,0,U,69891,999,218,.70939596E-4,.655E-5,0
