QIANFAN-234             
1 69863U 26155R   26203.30811381  .00000067  00000+0  22446-4 0  9993
2 69863  89.0062  60.1358 0030360 197.5189 162.4959 14.24414021  2397
QIANFAN-235             
1 69864U 26155S   26203.23611011  .00000228  00000+0  87671-4 0  9994
2 69864  89.0062  60.1435 0030988 199.6027 160.3978 14.26766661  2383
QIANFAN-236             
1 69865U 26155T   26202.96019600  .00000062  00000+0  21677-4 0  9990
2 69865  89.0073  60.1786 0030280 199.2788 160.7260 14.21179172  2344
QIANFAN-237             
1 69866U 26155U   26203.23799174  .00000066  00000+0  22048-4 0  9990
2 69866  89.0061  60.1438 0030660 199.0113 160.9938 14.24432134  2378
QIANFAN-238             
1 69867U 26155V   26203.23592493  .00000280  00000+0  10902-3 0  9999
2 69867  89.0062  60.1435 0031036 199.3262 160.6757 14.26739696  2385
CZ-8A R/B               
1 69868U 26155W   26203.26587331  .00000369  00000+0  87377-4 0  9997
2 69868  88.9653  60.0302 0106606  79.7983 281.5225 14.48273861  2417
TRANSPORTER-17 OBJECT A 
1 69869U 26156A   26203.27265306 -.00000138  00000+0 -63988-4 0  9993
2 69869  98.9941 103.2302 0011908 180.1766 179.9396 13.99858719  2094
TRANSPORTER-17 OBJECT B 
1 69870U 26156B   26203.16694849  .00001841  00000+0  18863-3 0  9992
2 69870  97.7514 103.3715 0008448  96.7548 263.4633 14.91658733  2217
TRANSPORTER-17 OBJECT C 
1 69871U 26156C   26203.16665397  .00000309  00000+0  36296-4 0  9998
2 69871  97.7550 103.3815 0007555 100.0964 260.1107 14.91673460  2021
TRANSPORTER-17 OBJECT D 
1 69872U 26156D   26203.04194508  .00000719  00000+0  78814-4 0  9994
2 69872  97.7516 103.2295 0005074  70.2302 289.9463 14.90714429  2195
TRANSPORTER-17 OBJECT E 
1 69873U 26156E   26203.16758429  .00000677  00000+0  72992-4 0  9990
2 69873  97.7552 103.3803 0007392  97.3263 262.8796 14.91580974  2212
TRANSPORTER-17 OBJECT F 
1 69874U 26156F   26203.17478914  .00001429  00000+0  15063-3 0  9991
2 69874  97.7521 103.3643 0004712  83.2283 276.9472 14.90864551  2212
TRANSPORTER-17 OBJECT G 
1 69875U 26156G   26203.17429790  .00001041  00000+0  11109-3 0  9997
2 69875  97.7506 103.3626 0005146  80.2024 279.9775 14.90910635  2213
TRANSPORTER-17 OBJECT H 
1 69876U 26156H   26203.03021767  .00000158  00000+0  21100-4 0  9996
2 69876  97.7337 103.2360 0008599 104.2403 255.9772 14.91898313  2190
TRANSPORTER-17 OBJECT J 
1 69877U 26156J   26203.03588546  .00002958  00000+0  30205-3 0  9995
2 69877  97.7543 103.2434 0006643  92.6967 267.5012 14.91349905  2199
TRANSPORTER-17 OBJECT K 
1 69878U 26156K   26203.16622665  .00000613  00000+0  66455-4 0  9994
2 69878  97.7511 103.3725 0008365  97.9720 262.2448 14.91716791  2216
TRANSPORTER-17 OBJECT L 
1 69879U 26156L   26203.16846716  .00001008  00000+0  10628-3 0  9999
2 69879  97.7548 103.3779 0007185  95.4926 264.7112 14.91496123  2215
TRANSPORTER-17 OBJECT M 
1 69880U 26156M   26203.17314554  .00001394  00000+0  14646-3 0  9994
2 69880  97.7452 103.3546 0006375  75.4450 284.7475 14.91029473  2217
TRANSPORTER-17 OBJECT N 
1 69881U 26156N   26203.17314571  .00000627  00000+0  68979-4 0  9991
2 69881  97.7488 103.3610 0005768  80.8832 279.3039 14.91022483  2218
TRANSPORTER-17 OBJECT P 
1 69882U 26156P   26202.97163762  .00003262  00000+0  33493-3 0  9993
2 69882  97.7561 103.1761 0005115  96.2135 263.9666 14.91061388  2187
TRANSPORTER-17 OBJECT Q 
1 69883U 26156Q   26203.17030173  .00000482  00000+0  53916-4 0  9990
2 69883  97.7542 103.3740 0006542  92.2289 267.9678 14.91304573  2214
TRANSPORTER-17 OBJECT R 
1 69884U 26156R   26203.16513394  .00001113  00000+0  11571-3 0  9993
2 69884  97.7511 103.3747 0008587 100.9369 259.2817 14.91832821  2216
TRANSPORTER-17 OBJECT S 
1 69885U 26156S   26203.16894125  .00000579  00000+0  63443-4 0  9999
2 69885  97.7519 103.3711 0007426  91.6530 268.5539 14.91442690  2218
TRANSPORTER-17 OBJECT T 
1 69886U 26156T   26203.16508051  .00000714  00000+0  76245-4 0  9995
2 69886  97.7549 103.3823 0008292 103.3038 256.9106 14.91833287  2208
TRANSPORTER-17 OBJECT U 
1 69887U 26156U   26203.16535318  .00000160  00000+0  21365-4 0  9990
2 69887  97.7547 103.3817 0008150 103.2260 256.9868 14.91799575  2216
TRANSPORTER-17 OBJECT V 
1 69888U 26156V   26203.17015009  .00001379  00000+0  14390-3 0  9994
2 69888  97.7560 103.3778 0006490  93.6064 266.5896 14.91330457  2057
TRANSPORTER-17 OBJECT W 
1 69889U 26156W   26203.16905571  .00001742  00000+0  17973-3 0  9990
2 69889  97.7548 103.3768 0007102  93.6601 266.5430 14.91445600  2210
TRANSPORTER-17 OBJECT X 
1 69890U 26156X   26203.16457591  .00000623  00000+0  67166-4 0  9993
2 69890  97.7542 103.3815 0008570 103.7733 256.4441 14.91883535  2211
TRANSPORTER-17 OBJECT Y 
1 69891U 26156Y   26202.96686515  .00000655  00000+0  70940-4 0  9990
2 69891  97.7511 103.1726 0007785  93.9020 266.3089 14.91525264  2189
